NORAD_CAT_ID,OBJECT_NAME,OBJECT_TYPE,EPOCH,MEAN_MOTION,ECCENTRICITY,INCLINATION,RA_OF_ASC_NODE,ARG_OF_PERICENTER,MEAN_ANOMALY,BSTAR,MEAN_MOTION_DOT,MEAN_MOTION_DDOT,TLE_LINE0,TLE_LINE1,TLE_LINE2,SEMIMAJOR_AXIS,PERIOD,APOGEE,PERIGEE,DECAYED
49142.0,STARLINK-3042,PAYLOAD,2022-07-31 02:03:16,14.96717932,0.000317,70.0012,336.1705,257.654,102.4264,9.756e-05,1.025e-05,0.0,0 STARLINK-3042,1 49142U 21082N   22212.08560533  .00001025  00000-0  97560-4 0  9991,2 49142  70.0012 336.1705 0003170 257.6540 102.4264 14.96717932 49615,6955.183000000001,96.211,579.252,574.8430000000002,0.0
49142.0,STARLINK-3042,PAYLOAD,2022-07-31 06:51:59,14.9671595,0.0003128,70.0012,335.6666,257.3179,102.7629,5.5668e-05,5.46e-06,0.0,0 STARLINK-3042,1 49142U 21082N   22212.28610350  .00000546  00000-0  55668-4 0  9996,2 49142  70.0012 335.6666 0003128 257.3179 102.7629 14.96715950 49642,6955.189,96.211,579.229,574.878,0.0
49142.0,STARLINK-3042,PAYLOAD,2022-07-31 14:53:11,14.96711982,0.0003138,70.0013,334.8262,257.2078,102.873,-2.507e-05,-3.79e-06,0.0,0 STARLINK-3042,1 49142U 21082N   22212.62026803 -.00000379  00000-0 -25070-4 0  9998,2 49142  70.0013 334.8262 0003138 257.2078 102.8730 14.96711982 49694,6955.201,96.211,579.249,574.883,0.0
49142.0,STARLINK-3042,PAYLOAD,2022-08-01 14:56:45,14.96718201,0.0003181,70.0015,332.3051,257.5401,102.5402,-9.092e-06,-1.96e-06,0.0,0 STARLINK-3042,1 49142U 21082N   22213.62274394 -.00000196  00000-0 -90920-5 0  9993,2 49142  70.0015 332.3051 0003181 257.5401 102.5402 14.96718201 49847,6955.182,96.21,579.259,574.8340000000002,0.0
49142.0,STARLINK-3042,PAYLOAD,2022-08-02 11:47:50,14.96716304,0.0003336,70.0012,330.1202,258.2418,101.8366,0.00015571,1.691e-05,0.0,0 STARLINK-3042,1 49142U 21082N   22214.49155598  .00001691  00000-0  15571-3 0  9999,2 49142  70.0012 330.1202 0003336 258.2418 101.8366 14.96716304 49973,6955.188,96.211,579.373,574.732,0.0
49142.0,STARLINK-3042,PAYLOAD,2022-08-03 11:51:25,14.96714335,0.000327,70.0009,327.5989,257.8556,102.2236,1.8184e-05,1.17e-06,0.0,0 STARLINK-3042,1 49142U 21082N   22215.49404003  .00000117  00000-0  18184-4 0  9994,2 49142  70.0009 327.5989 0003270 257.8556 102.2236 14.96714335 50128,6955.194,96.211,579.3330000000002,574.784,0.0
49142.0,STARLINK-3042,PAYLOAD,2022-08-03 13:27:39,14.96714349,0.0003269,70.0009,327.4308,257.8485,102.2307,1.7392e-05,1.07e-06,0.0,0 STARLINK-3042,1 49142U 21082N   22215.56087204  .00000107  00000-0  17392-4 0  9991,2 49142  70.0009 327.4308 0003269 257.8485 102.2307 14.96714349 50136,6955.194,96.211,579.332,574.785,0.0
49142.0,STARLINK-3042,PAYLOAD,2022-08-04 11:54:59,14.96717718,0.000327,70.001,325.078,257.0345,103.0448,1.0544e-06,-8e-07,0.0,0 STARLINK-3042,1 49142U 21082N   22216.49651826 -.00000080  00000-0  10544-5 0  9995,2 49142  70.0010 325.0780 0003270 257.0345 103.0448 14.96717718 50278,6955.183000000001,96.211,579.323,574.774,0.0
49142.0,STARLINK-3042,PAYLOAD,2022-08-04 19:56:10,14.96721568,0.00033,70.0008,324.237,257.2447,102.8343,2.8917e-05,2.39e-06,0.0,0 STARLINK-3042,1 49142U 21082N   22216.83067436  .00000239  00000-0  28917-4 0  9998,2 49142  70.0008 324.2370 0003300 257.2447 102.8343 14.96721568 50325,6955.170999999999,96.21,579.331,574.741,0.0
49142.0,STARLINK-3042,PAYLOAD,2022-08-05 11:58:32,14.96720724,0.0003297,70.001,322.5568,257.2679,102.8111,0.0001592,1.731e-05,0.0,0 STARLINK-3042,1 49142U 21082N   22217.49899033  .00001731  00000-0  15920-3 0  9994,2 49142  70.0010 322.5568 0003297 257.2679 102.8111 14.96720724 50427,6955.174,96.21,579.332,574.746,0.0
49142.0,STARLINK-3042,PAYLOAD,2022-08-05 16:47:15,14.96716521,0.0003307,70.0012,322.0527,257.4652,102.6137,0.00010597,1.122e-05,0.0,0 STARLINK-3042,1 49142U 21082N   22217.69949010  .00001122  00000-0  10597-3 0  9996,2 49142  70.0012 322.0527 0003307 257.4652 102.6137 14.96716521 50453,6955.187,96.211,579.352,574.752,0.0
49142.0,STARLINK-3042,PAYLOAD,2022-08-06 05:37:10,14.96710522,0.0003299,70.0012,320.7081,257.7919,102.287,-1.1214e-05,-2.2e-06,0.0,0 STARLINK-3042,1 49142U 21082N   22218.23415387 -.00000220  00000-0 -11214-4 0  9990,2 49142  70.0012 320.7081 0003299 257.7919 102.2870 14.96710522 50536,6955.206,96.211,579.365,574.776,0.0
49142.0,STARLINK-3042,PAYLOAD,2022-08-06 13:38:22,14.96715066,0.0003308999999999,70.0012,319.868,258.3424,101.7363,6.2349e-06,-2e-07,0.0,0 STARLINK-3042,1 49142U 21082N   22218.56831122 -.00000020  00000-0  62349-5 0  9998,2 49142  70.0012 319.8680 0003309 258.3424 101.7363 14.96715066 50584,6955.191,96.211,579.3580000000002,574.755,0.0
49142.0,STARLINK-3042,PAYLOAD,2022-08-07 05:40:44,14.96720976,0.0003216,70.0014,318.1872,258.3189,101.7608,2.7598e-05,2.24e-06,0.0,0 STARLINK-3042,1 49142U 21082N   22219.23662636  .00000224  00000-0  27598-4 0  9996,2 49142  70.0014 318.1872 0003216 258.3189 101.7608 14.96720976 50685,6955.1730000000025,96.21,579.275,574.8009999999998,0.0
49142.0,STARLINK-3042,PAYLOAD,2022-08-07 12:05:41,14.96722183,0.0003188999999999,70.0013,317.5149,258.3155,101.7646,5.0954e-05,4.92e-06,0.0,0 STARLINK-3042,1 49142U 21082N   22219.50395246  .00000492  00000-0  50954-4 0  9995,2 49142  70.0013 317.5149 0003189 258.3155 101.7646 14.96722183 50725,6955.169,96.21,579.252,574.816,0.0
49142.0,STARLINK-3042,PAYLOAD,2022-08-07 16:54:24,14.96724823,0.0003165,70.0012,317.0106,258.2235,101.8568,8.0189e-05,8.27e-06,0.0,0 STARLINK-3042,1 49142U 21082N   22219.70444524  .00000827  00000-0  80189-4 0  9996,2 49142  70.0012 317.0106 0003165 258.2235 101.8568 14.96724823 50754,6955.161,96.21,579.2280000000002,574.825,0.0
49142.0,STARLINK-3042,PAYLOAD,2022-08-07 23:19:20,14.96725552,0.000317,70.0009,316.3383,258.0622,102.0181,0.00020299,2.233e-05,0.0,0 STARLINK-3042,1 49142U 21082N   22219.97176907  .00002233  00000-0  20299-3 0  9990,2 49142  70.0009 316.3383 0003170 258.0622 102.0181 14.96725552 50791,6955.159000000002,96.21,579.229,574.819,0.0
49142.0,STARLINK-3042,PAYLOAD,2022-08-08 10:33:01,14.96718955,0.0003058,70.0013,315.1621,257.2974,102.7843,8.9506e-05,9.33e-06,0.0,0 STARLINK-3042,1 49142U 21082N   22220.43959930  .00000933  00000-0  89506-4 0  9990,2 49142  70.0013 315.1621 0003058 257.2974 102.7843 14.96718955 50863,6955.179,96.21,579.1709999999998,574.9169999999998,0.0
49142.0,STARLINK-3042,PAYLOAD,2022-08-09 05:47:52,14.96725858,0.0002952,70.0015,313.1461,253.3711,106.7123,8.979e-05,9.37e-06,0.0,0 STARLINK-3042,1 49142U 21082N   22221.24157507  .00000937  00000-0  89790-4 0  9999,2 49142  70.0015 313.1461 0002952 253.3711 106.7123 14.96725858 50981,6955.158,96.21,579.076,574.97,0.0
49142.0,STARLINK-3042,PAYLOAD,2022-08-09 12:12:49,14.96720426,0.0003097,70.0008,312.4726,257.6777,102.4034,-1.9695e-06,-1.14e-06,0.0,0 STARLINK-3042,1 49142U 21082N   22221.50890731 -.00000114  00000-0 -19695-5 0  9998,2 49142  70.0008 312.4726 0003097 257.6777 102.4034 14.96720426 51025,6955.175,96.21,579.194,574.886,0.0
49142.0,STARLINK-3042,PAYLOAD,2022-08-10 09:03:55,14.96711126,0.0003027,70.0009,310.2876,254.3796,105.7028,-4.431e-05,-5.99e-06,0.0,0 STARLINK-3042,1 49142U 21082N   22222.37772977 -.00000599  00000-0 -44310-4 0  9993,2 49142  70.0009 310.2876 0003027 254.3796 105.7028 14.96711126 51156,6955.204000000002,96.211,579.174,574.9630000000002,0.0
49142.0,STARLINK-3042,PAYLOAD,2022-08-10 17:05:07,14.96711962,0.0003048,70.0005,309.4466,253.8093,106.273,-6.5678e-05,-8.43e-06,0.0,0 STARLINK-3042,1 49142U 21082N   22222.71189031 -.00000843  00000-0 -65678-4 0  9996,2 49142  70.0005 309.4466 0003048 253.8093 106.2730 14.96711962 51204,6955.201,96.211,579.186,574.946,0.0
49142.0,STARLINK-3042,PAYLOAD,2022-08-11 12:19:58,14.9671457,0.0003191999999999,70.0003,307.4302,254.8641,105.2164,8.8081e-05,9.17e-06,0.0,0 STARLINK-3042,1 49142U 21082N   22223.51386882  .00000917  00000-0  88081-4 0  9991,2 49142  70.0003 307.4302 0003192 254.8641 105.2164 14.96714570 51320,6955.193,96.211,579.278,574.8380000000002,0.0
49142.0,STARLINK-3042,PAYLOAD,2022-08-11 17:08:40,14.96717295,0.0003167,70.0006,306.9264,255.4047,104.676,0.00011479,1.223e-05,0.0,0 STARLINK-3042,1 49142U 21082N   22223.71436257  .00001223  00000-0  11479-3 0  9992,2 49142  70.0006 306.9264 0003167 255.4047 104.6760 14.96717295 51358,6955.185,96.211,579.252,574.847,0.0
49142.0,STARLINK-3042,PAYLOAD,2022-08-12 05:58:35,14.96709877,0.0003085,70.001,305.5834,250.1823,109.9003,8.6876e-05,9.03e-06,0.0,0 STARLINK-3042,1 49142U 21082N   22224.24902547  .00000903  00000-0  86876-4 0  9999,2 49142  70.0010 305.5834 0003085 250.1823 109.9003 14.96709877 51438,6955.208000000001,96.211,579.2180000000002,574.927,0.0
49142.0,STARLINK-3042,PAYLOAD,2022-08-12 12:23:33,14.9670911,0.0003094,70.001,304.9112,251.0252,109.0572,6.909800000000001e-05,6.99e-06,0.0,0 STARLINK-3042,1 49142U 21082N   22224.51635527  .00000699  00000-0  69098-4 0  9999,2 49142  70.0010 304.9112 0003094 251.0252 109.0572 14.96709110 51472,6955.21,96.211,579.227,574.923,0.0
49142.0,STARLINK-3042,PAYLOAD,2022-08-12 17:12:16,14.96709803,0.0003099,70.0007,304.4055,257.7931,102.288,6.8321e-05,6.900000000000003e-06,0.0,0 STARLINK-3042,1 49142U 21082N   22224.71685197  .00000690  00000-0  68321-4 0  9998,2 49142  70.0007 304.4055 0003099 257.7931 102.2880 14.96709803 51501,6955.208000000001,96.211,579.2280000000002,574.9169999999998,0.0
49142.0,STARLINK-3042,PAYLOAD,2022-08-13 14:03:21,14.96719704,0.0003045,70.0006,302.2207,258.5443,101.5374,5.6365e-05,5.54e-06,0.0,0 STARLINK-3042,1 49142U 21082N   22225.58566197  .00000554  00000-0  56365-4 0  9996,2 49142  70.0006 302.2207 0003045 258.5443 101.5374 14.96719704 51638,6955.177,96.21,579.16,574.924,0.0
49142.0,STARLINK-3042,PAYLOAD,2022-08-13 17:15:50,14.96716079,0.000303,70.0004,301.883,261.0108,99.0708,1.9101e-05,1.27e-06,0.0,0 STARLINK-3042,1 49142U 21082N   22225.71932899  .00000127  00000-0  19101-4 0  9990,2 49142  70.0004 301.8830 0003030 261.0108  99.0708 14.96716079 51650,6955.188,96.211,579.161,574.946,0.0
